[
    {
        "CCSDS_OMM_VERS": "3.0",
        "COMMENT": "GENERATED VIA SPACE-TRACK.ORG API",
        "CREATION_DATE": "2025-03-02T22:56:18",
        "ORIGINATOR": "18 SPCS",
        "OBJECT_NAME": "BD-17",
        "OBJECT_ID": "2015-019A",
        "CENTER_NAME": "EARTH",
        "REF_FRAME": "TEME",
        "TIME_SYSTEM": "UTC",
        "MEAN_ELEMENT_THEORY": "SGP4",
        "EPOCH": "2025-03-02T15:10:20.275104",
        "MEAN_MOTION": "1.00247422",
        "ECCENTRICITY": "0.00338610",
        "INCLINATION": "50.0850",
        "RA_OF_ASC_NODE": "301.1215",
        "ARG_OF_PERICENTER": "195.2419",
        "MEAN_ANOMALY": "342.3589",
        "EPHEMERIS_TYPE": "0",
        "CLASSIFICATION_TYPE": "U",
        "NORAD_CAT_ID": "40549",
        "ELEMENT_SET_NO": "999",
        "REV_AT_EPOCH": "3633",
        "BSTAR": "0.00000000000000",
        "MEAN_MOTION_DOT": "-0.00000129",
        "MEAN_MOTION_DDOT": "0.0000000000000",
        "SEMIMAJOR_AXIS": "42171.563",
        "PERIOD": "1436.446",
        "APOAPSIS": "35936.225",
        "PERIAPSIS": "35650.631",
        "OBJECT_TYPE": "PAYLOAD",
        "RCS_SIZE": "LARGE",
        "COUNTRY_CODE": "PRC",
        "LAUNCH_DATE": "2015-03-30",
        "SITE": "XSC",
        "DECAY_DATE": null,
        "FILE": "4657391",
        "GP_ID": "282106250",
        "TLE_LINE0": "0 BD-17",
        "TLE_LINE1": "1 40549U 15019A   25061.63217911 -.00000129  00000-0  00000+0 0  9994",
        "TLE_LINE2": "2 40549  50.0850 301.1215 0033861 195.2419 342.3589  1.00247422 36338"
    }
]